SHIJIAN-6 01B (SJ-6 01B)
1 28414U 04035B   26104.60259867  .00002225  00000+0  15740-3 0  9997
2 28414  97.6095 123.2938 0004890  16.0633 344.0748 15.05874525177259
SHIJIAN-6 05B (SJ-6 05B)
1 49962U 21122B   26104.70279899  .00001367  00000+0  84068-4 0  9998
2 49962  97.3761  87.5043 0000542 124.6567 235.4715 15.11635098240152
SHIJIAN-23 (SJ-23)
1 55131U 23002A   26104.75769487 -.00000054  00000+0  00000+0 0  9996
2 55131   3.5536  79.0900 0005541 268.8347 288.3889  1.00476371 11879
KONDOR-FKA NO. 1
1 56756U 23074A   26104.61513892  .00002725  00000+0  13077-3 0  9999
2 56756  97.4386 300.0947 0001737  88.2031 271.9403 15.19710407160032
KONDOR-FKA NO. 2
1 62138U 24223A   26104.63976098  .00002272  00000+0  10950-3 0  9994
2 62138  97.4420 308.9985 0001683  84.4454 275.6973 15.19733507 76055
SHIJIAN-25 (SJ-25)
1 62485U 25002A   26104.75999736 -.00000340  00000+0  00000+0 0  9998
2 62485   4.9630  61.5264 0050915 168.0897  14.3187  1.00273421  4729
SHIJIAN-26 (SJ-26)
1 64199U 25115A   26104.15037338  .00003252  00000+0  14069-3 0  9990
2 64199  97.4571 183.1027 0018519 212.8906 147.1180 15.23019966 48699
SHIJIAN-30B (SJ-30B)
1 66546U 25266B   26104.53739146  .00002795  00000+0  16227-3 0  9992
2 66546  51.7953 117.5381 0011403  49.0423 311.1538 15.15396385 22200
