[ {"OBJECT_NAME": "SHIJIAN-6 05B (SJ-6 05B)", "NORAD_CAT_ID": 49962, "MEAN_MOTION": 15.11635098, "ECCENTRICITY": 5.42e-05, "INCLINATION": 97.3761, "RA_OF_ASC_NODE": 87.5043, "ARG_OF_PERICENTER": 124.6567, "MEAN_ANOMALY": 235.4715, "BSTAR": 8.406800000000001e-05, "EPOCH": "2026-04-14T16:52:01"}, {"OBJECT_NAME": "SHIJIAN-23 (SJ-23)", "NORAD_CAT_ID": 55131, "MEAN_MOTION": 1.00476371, "ECCENTRICITY": 0.0005541, "INCLINATION": 3.5536, "RA_OF_ASC_NODE": 79.09, "ARG_OF_PERICENTER": 268.8347, "MEAN_ANOMALY": 288.3889, "BSTAR": 0.0, "EPOCH": "2026-04-14T18:11:04"}, {"OBJECT_NAME": "SHIJIAN-25 (SJ-25)", "NORAD_CAT_ID": 62485, "MEAN_MOTION": 1.00273421, "ECCENTRICITY": 0.0050915, "INCLINATION": 4.963, "RA_OF_ASC_NODE": 61.5264, "ARG_OF_PERICENTER": 168.0897, "MEAN_ANOMALY": 14.3187, "BSTAR": 0.0, "EPOCH": "2026-04-14T18:14:23"}, {"OBJECT_NAME": "SHIJIAN-6 01B (SJ-6 01B)", "NORAD_CAT_ID": 28414, "MEAN_MOTION": 15.05874525, "ECCENTRICITY": 0.000489, "INCLINATION": 97.6095, "RA_OF_ASC_NODE": 123.2938, "ARG_OF_PERICENTER": 16.0633, "MEAN_ANOMALY": 344.0748, "BSTAR": 0.0001574, "EPOCH": "2026-04-14T14:27:44"}, {"OBJECT_NAME": "SHIJIAN-26 (SJ-26)", "NORAD_CAT_ID": 64199, "MEAN_MOTION": 15.23019966, "ECCENTRICITY": 0.0018519, "INCLINATION": 97.4571, "RA_OF_ASC_NODE": 183.1027, "ARG_OF_PERICENTER": 212.8906, "MEAN_ANOMALY": 147.118, "BSTAR": 0.00014069, "EPOCH": "2026-04-14T03:36:32"}, {"OBJECT_NAME": "SHIJIAN-30B (SJ-30B)", "NORAD_CAT_ID": 66546, "MEAN_MOTION": 15.15396385, "ECCENTRICITY": 0.0011403, "INCLINATION": 51.7953, "RA_OF_ASC_NODE": 117.5381, "ARG_OF_PERICENTER": 49.0423, "MEAN_ANOMALY": 311.1538, "BSTAR": 0.00016227, "EPOCH": "2026-04-14T12:53:50"}, {"OBJECT_NAME": "KONDOR-FKA NO. 1", "NORAD_CAT_ID": 56756, "MEAN_MOTION": 15.19710407, "ECCENTRICITY": 0.0001737, "INCLINATION": 97.4386, "RA_OF_ASC_NODE": 300.0947, "ARG_OF_PERICENTER": 88.2031, "MEAN_ANOMALY": 271.9403, "BSTAR": 0.00013077, "EPOCH": "2026-04-14T14:45:48"}, {"OBJECT_NAME": "KONDOR-FKA NO. 2", "NORAD_CAT_ID": 62138, "MEAN_MOTION": 15.19733507, "ECCENTRICITY": 0.0001683, "INCLINATION": 97.442, "RA_OF_ASC_NODE": 308.9985, "ARG_OF_PERICENTER": 84.4454, "MEAN_ANOMALY": 275.6973, "BSTAR": 0.0001095, "EPOCH": "2026-04-14T15:21:15"}]